*******************************************************************************
Revised: Sep 12, 1996           Earth Barycenter                              3
 
 Dynamical point:
 ---------------
 The common point about which the Earth and Moon revolve (center of mass). This
 is approximately 4671 km from the center of the Earth, or about 3/4 of the way 
 to the surface. See 399 for Earth center, or 301 for Moon center ephemeris.

*******************************************************************************
 
 
*******************************************************************************
Ephemeris / WWW_USER Mon Jun 24 14:35:37 2013 Pasadena, USA      / Horizons    
*******************************************************************************
Target body name: Earth-Moon Barycenter (3)       {source: DE405}
Center body name: Solar System Barycenter (0)     {source: DE405}
Center-site name: BODY CENTER
*******************************************************************************
Start time      : A.D. 2018-Jun-09 00:00:00.0000 CT 
Stop  time      : A.D. 2018-Jun-12 00:00:00.0000 CT 
Step-size       : 60 minutes
*******************************************************************************
Center geodetic : 0.00000000,0.00000000,0.0000000 {E-lon(deg),Lat(deg),Alt(km)}
Center cylindric: 0.00000000,0.00000000,0.0000000 {E-lon(deg),Dxy(km),Dz(km)}
Center radii    : (undefined)                                                  
Output units    : KM-S                                                         
Output format   : 01
Reference frame : ICRF/J2000.0                                                 
Output type     : GEOMETRIC cartesian states
Coordinate systm: Ecliptic and Mean Equinox of Reference Epoch                 
*******************************************************************************
JDCT 
   X     Y     Z
*******************************************************************************
$$SOE
2458278.500000000 = A.D. 2018-Jun-09 00:00:00.0000 (CT)
  -3.175666345401632E+07 -1.474457443279116E+08 -7.855370956517691E+03
2458278.541666667 = A.D. 2018-Jun-09 01:00:00.0000 (CT)
  -3.165359223819029E+07 -1.474685967142980E+08 -7.853730902315794E+03
2458278.583333333 = A.D. 2018-Jun-09 02:00:00.0000 (CT)
  -3.155050541925661E+07 -1.474913761655812E+08 -7.852093949352169E+03
2458278.625000000 = A.D. 2018-Jun-09 03:00:00.0000 (CT)
  -3.144740304810492E+07 -1.475140826716526E+08 -7.850460097870062E+03
2458278.666666667 = A.D. 2018-Jun-09 04:00:00.0000 (CT)
  -3.134428517563064E+07 -1.475367162224381E+08 -7.848829348107698E+03
2458278.708333333 = A.D. 2018-Jun-09 05:00:00.0000 (CT)
  -3.124115185273493E+07 -1.475592768078982E+08 -7.847201700325641E+03
2458278.750000000 = A.D. 2018-Jun-09 06:00:00.0000 (CT)
  -3.113800313032467E+07 -1.475817644180278E+08 -7.845577154755723E+03
2458278.791666667 = A.D. 2018-Jun-09 07:00:00.0000 (CT)
  -3.103483905931243E+07 -1.476041790428565E+08 -7.843955711668990E+03
2458278.833333333 = A.D. 2018-Jun-09 08:00:00.0000 (CT)
  -3.093165969061648E+07 -1.476265206724484E+08 -7.842337371274014E+03
2458278.875000000 = A.D. 2018-Jun-09 09:00:00.0000 (CT)
  -3.082846507516076E+07 -1.476487892969018E+08 -7.840722133842271E+03
2458278.916666667 = A.D. 2018-Jun-09 10:00:00.0000 (CT)
  -3.072525526387483E+07 -1.476709849063501E+08 -7.839109999599648E+03
2458278.958333333 = A.D. 2018-Jun-09 11:00:00.0000 (CT)
  -3.062203030769385E+07 -1.476931074909607E+08 -7.837500968801203E+03
2458279.000000000 = A.D. 2018-Jun-09 12:00:00.0000 (CT)
  -3.051879025755860E+07 -1.477151570409358E+08 -7.835895041659594E+03
2458279.041666667 = A.D. 2018-Jun-09 13:00:00.0000 (CT)
  -3.041553516441542E+07 -1.477371335465122E+08 -7.834292218425289E+03
2458279.083333333 = A.D. 2018-Jun-09 14:00:00.0000 (CT)
  -3.031226507921620E+07 -1.477590369979610E+08 -7.832692499350596E+03
2458279.125000000 = A.D. 2018-Jun-09 15:00:00.0000 (CT)
  -3.020898005291836E+07 -1.477808673855882E+08 -7.831095884623519E+03
2458279.166666667 = A.D. 2018-Jun-09 16:00:00.0000 (CT)
  -3.010568013648482E+07 -1.478026246997339E+08 -7.829502374517313E+03
2458279.208333333 = A.D. 2018-Jun-09 17:00:00.0000 (CT)
  -3.000236538088399E+07 -1.478243089307730E+08 -7.827911969259629E+03
2458279.250000000 = A.D. 2018-Jun-09 18:00:00.0000 (CT)
  -2.989903583708973E+07 -1.478459200691151E+08 -7.826324669056226E+03
2458279.291666667 = A.D. 2018-Jun-09 19:00:00.0000 (CT)
  -2.979569155608134E+07 -1.478674581052040E+08 -7.824740474150698E+03
2458279.333333333 = A.D. 2018-Jun-09 20:00:00.0000 (CT)
  -2.969233258884357E+07 -1.478889230295182E+08 -7.823159384769751E+03
2458279.375000000 = A.D. 2018-Jun-09 21:00:00.0000 (CT)
  -2.958895898636650E+07 -1.479103148325709E+08 -7.821581401152402E+03
2458279.416666667 = A.D. 2018-Jun-09 22:00:00.0000 (CT)
  -2.948557079964565E+07 -1.479316335049097E+08 -7.820006523492051E+03
2458279.458333333 = A.D. 2018-Jun-09 23:00:00.0000 (CT)
  -2.938216807968185E+07 -1.479528790371167E+08 -7.818434752029978E+03
2458279.500000000 = A.D. 2018-Jun-10 00:00:00.0000 (CT)
  -2.927875087748127E+07 -1.479740514198088E+08 -7.816866086982347E+03
2458279.541666667 = A.D. 2018-Jun-10 01:00:00.0000 (CT)
  -2.917531924405539E+07 -1.479951506436372E+08 -7.815300528575819E+03
2458279.583333333 = A.D. 2018-Jun-10 02:00:00.0000 (CT)
  -2.907187323042098E+07 -1.480161766992878E+08 -7.813738077028833E+03
2458279.625000000 = A.D. 2018-Jun-10 03:00:00.0000 (CT)
  -2.896841288760006E+07 -1.480371295774811E+08 -7.812178732553424E+03
2458279.666666667 = A.D. 2018-Jun-10 04:00:00.0000 (CT)
  -2.886493826661991E+07 -1.480580092689721E+08 -7.810622495367094E+03
2458279.708333333 = A.D. 2018-Jun-10 05:00:00.0000 (CT)
  -2.876144941851300E+07 -1.480788157645504E+08 -7.809069365685948E+03
2458279.750000000 = A.D. 2018-Jun-10 06:00:00.0000 (CT)
  -2.865794639431702E+07 -1.480995490550400E+08 -7.807519343724733E+03
2458279.791666667 = A.D. 2018-Jun-10 07:00:00.0000 (CT)
  -2.855442924507484E+07 -1.481202091312999E+08 -7.805972429698613E+03
2458279.833333333 = A.D. 2018-Jun-10 08:00:00.0000 (CT)
  -2.845089802183447E+07 -1.481407959842232E+08 -7.804428623821386E+03
2458279.875000000 = A.D. 2018-Jun-10 09:00:00.0000 (CT)
  -2.834735277564905E+07 -1.481613096047378E+08 -7.802887926281757E+03
2458279.916666667 = A.D. 2018-Jun-10 10:00:00.0000 (CT)
  -2.824379355757684E+07 -1.481817499838063E+08 -7.801350337318101E+03
2458279.958333333 = A.D. 2018-Jun-10 11:00:00.0000 (CT)
  -2.814022041868117E+07 -1.482021171124257E+08 -7.799815857106332E+03
2458280.000000000 = A.D. 2018-Jun-10 12:00:00.0000 (CT)
  -2.803663341003047E+07 -1.482224109816275E+08 -7.798284485877040E+03
2458280.041666667 = A.D. 2018-Jun-10 13:00:00.0000 (CT)
  -2.793303258269818E+07 -1.482426315824781E+08 -7.796756223823890E+03
2458280.083333333 = A.D. 2018-Jun-10 14:00:00.0000 (CT)
  -2.782941798776276E+07 -1.482627789060782E+08 -7.795231071152823E+03
2458280.125000000 = A.D. 2018-Jun-10 15:00:00.0000 (CT)
  -2.772578967630771E+07 -1.482828529435632E+08 -7.793709028072040E+03
2458280.166666667 = A.D. 2018-Jun-10 16:00:00.0000 (CT)
  -2.762214769942146E+07 -1.483028536861031E+08 -7.792190094767862E+03
2458280.208333333 = A.D. 2018-Jun-10 17:00:00.0000 (CT)
  -2.751849210819742E+07 -1.483227811249025E+08 -7.790674271447544E+03
2458280.250000000 = A.D. 2018-Jun-10 18:00:00.0000 (CT)
  -2.741482295373394E+07 -1.483426352512006E+08 -7.789161558316962E+03
2458280.291666667 = A.D. 2018-Jun-10 19:00:00.0000 (CT)
  -2.731114028713427E+07 -1.483624160562711E+08 -7.787651955560552E+03
2458280.333333333 = A.D. 2018-Jun-10 20:00:00.0000 (CT)
  -2.720744415950654E+07 -1.483821235314224E+08 -7.786145463380035E+03
2458280.375000000 = A.D. 2018-Jun-10 21:00:00.0000 (CT)
  -2.710373462196377E+07 -1.484017576679975E+08 -7.784642081970756E+03
2458280.416666667 = A.D. 2018-Jun-10 22:00:00.0000 (CT)
  -2.700001172562382E+07 -1.484213184573739E+08 -7.783141811523466E+03
2458280.458333333 = A.D. 2018-Jun-10 23:00:00.0000 (CT)
  -2.689627552160936E+07 -1.484408058909638E+08 -7.781644652236202E+03
2458280.500000000 = A.D. 2018-Jun-11 00:00:00.0000 (CT)
  -2.679252606104788E+07 -1.484602199602140E+08 -7.780150604276874E+03
2458280.541666667 = A.D. 2018-Jun-11 01:00:00.0000 (CT)
  -2.668876339507164E+07 -1.484795606566059E+08 -7.778659667874927E+03
2458280.583333333 = A.D. 2018-Jun-11 02:00:00.0000 (CT)
  -2.658498757481767E+07 -1.484988279716554E+08 -7.777171843182292E+03
2458280.625000000 = A.D. 2018-Jun-11 03:00:00.0000 (CT)
  -2.648119865142772E+07 -1.485180218969133E+08 -7.775687130400558E+03
2458280.666666667 = A.D. 2018-Jun-11 04:00:00.0000 (CT)
  -2.637739667604826E+07 -1.485371424239646E+08 -7.774205529714884E+03
2458280.708333333 = A.D. 2018-Jun-11 05:00:00.0000 (CT)
  -2.627358169983047E+07 -1.485561895444292E+08 -7.772727041309045E+03
2458280.750000000 = A.D. 2018-Jun-11 06:00:00.0000 (CT)
  -2.616975377393017E+07 -1.485751632499616E+08 -7.771251665377727E+03
2458280.791666667 = A.D. 2018-Jun-11 07:00:00.0000 (CT)
  -2.606591294950785E+07 -1.485940635322509E+08 -7.769779402090528E+03
2458280.833333333 = A.D. 2018-Jun-11 08:00:00.0000 (CT)
  -2.596205927772862E+07 -1.486128903830207E+08 -7.768310251631145E+03
2458280.875000000 = A.D. 2018-Jun-11 09:00:00.0000 (CT)
  -2.585819280976220E+07 -1.486316437940293E+08 -7.766844214178709E+03
2458280.916666667 = A.D. 2018-Jun-11 10:00:00.0000 (CT)
  -2.575431359678289E+07 -1.486503237570696E+08 -7.765381289902736E+03
2458280.958333333 = A.D. 2018-Jun-11 11:00:00.0000 (CT)
  -2.565042168996955E+07 -1.486689302639692E+08 -7.763921479003733E+03
2458281.000000000 = A.D. 2018-Jun-11 12:00:00.0000 (CT)
  -2.554651714050559E+07 -1.486874633065903E+08 -7.762464781630202E+03
2458281.041666667 = A.D. 2018-Jun-11 13:00:00.0000 (CT)
  -2.544259999957890E+07 -1.487059228768297E+08 -7.761011197973490E+03
